STARLINK-5935           
1 56453U 23064F   25262.05356865  .00000164  00000+0  21573-4 0  9995
2 56453  69.9991 217.3291 0003317 267.3560  92.7219 14.98330603129533
STARLINK-5959           
1 56454U 23064G   25262.03269669  .00000485  00000+0  48474-4 0  9994
2 56454  69.9992 217.2554 0003686 268.8459  91.2278 14.98329164129537
STARLINK-5987           
1 56455U 23064H   25262.02852507  .00000347  00000+0  36899-4 0  9998
2 56455  69.9988 217.2397 0003360 266.1798  93.8977 14.98328925129532
STARLINK-5995           
1 56456U 23064J   25262.04104472  .00000558  00000+0  54523-4 0  9990
2 56456  69.9996 217.2860 0003114 271.8235  88.2567 14.98331764129531
STARLINK-5994           
1 56457U 23064K   25262.03687168  .00000485  00000+0  48479-4 0  9990
2 56457  69.9993 217.2693 0003312 269.3569  90.7211 14.98329441129538
STARLINK-6050           
1 56458U 23064L   25261.24458380 -.00060251  00000+0 -51493-2 0  9992
2 56458  69.9993 219.3213 0002731 313.0791  47.0139 14.97847138129416
STARLINK-6048           
1 56459U 23064M   25262.25002315  .00036506  00000+0  30528-2 0  9998
2 56459  70.0008 216.5823 0002946 273.5884 290.0627 14.98312527  5778
STARLINK-6047           
1 56460U 23064N   25262.02435189  .00000317  00000+0  34365-4 0  9990
2 56460  69.9990 217.2261 0003101 270.1736  89.9068 14.98326968129533
STARLINK-6037           
1 56461U 23064P   25262.27469999 -.00002640  00000+0 -21363-3 0  9990
2 56461  70.0017 216.4990 0002634 268.6132  91.4725 14.98322449129571
STARLINK-6045           
1 56462U 23064Q   25262.16173464  .00001410  00000+0  12591-3 0  9993
2 56462  70.0005 176.7375 0002899 265.3386  94.7441 14.98328846130549
STARLINK-6051           
1 56463U 23064R   25262.04939347  .00000408  00000+0  42023-4 0  9991
2 56463  69.9992 217.3067 0003078 269.3313  90.7493 14.98331116129530
STARLINK-6043           
1 56464U 23064S   25262.28721497  .00000358  00000+0  37775-4 0  9995
2 56464  69.9993 216.5380 0003407 273.0168  87.0601 14.98340097129579
STARLINK-6054           
1 56465U 23064T   25262.16991677  .00000792  00000+0  74163-4 0  9996
2 56465  70.0005 176.7619 0002747 268.3572  91.7272 14.98328283130549
STARLINK-6053           
1 56466U 23064U   25262.27887904  .00000792  00000+0  74199-4 0  9995
2 56466  69.9988 216.5086 0004063 283.0752  76.9953 14.98331201129571
STARLINK-6055           
1 56467U 23064V   25262.23276377 -.00003225  00000+0 -26263-3 0  9992
2 56467  69.9993 196.8829 0003097 264.3040  95.7766 14.98322110130056
STARLINK-5998           
1 56468U 23064W   25262.27051971  .00000613  00000+0  59190-4 0  9990
2 56468  69.9987 216.4771 0002758 268.9935  91.0908 14.98330192129572
