[{"OBJECT_NAME":"STARLINK-5935","OBJECT_ID":"2023-064F","EPOCH":"2025-09-19T01:17:08.331360","MEAN_MOTION":14.98330603,"ECCENTRICITY":0.00033179,"INCLINATION":69.9991,"RA_OF_ASC_NODE":217.3291,"ARG_OF_PERICENTER":267.356,"MEAN_ANOMALY":92.7219,"EPHEMERIS_TYPE":0,"CLASSIFICATION_TYPE":"U","NORAD_CAT_ID":56453,"ELEMENT_SET_NO":999,"REV_AT_EPOCH":12953,"BSTAR":2.1572951e-5,"MEAN_MOTION_DOT":1.64e-6,"MEAN_MOTION_DDOT":0},{"OBJECT_NAME":"STARLINK-5959","OBJECT_ID":"2023-064G","EPOCH":"2025-09-19T00:47:04.994016","MEAN_MOTION":14.98329164,"ECCENTRICITY":0.00036868,"INCLINATION":69.9992,"RA_OF_ASC_NODE":217.2554,"ARG_OF_PERICENTER":268.8459,"MEAN_ANOMALY":91.2278,"EPHEMERIS_TYPE":0,"CLASSIFICATION_TYPE":"U","NORAD_CAT_ID":56454,"ELEMENT_SET_NO":999,"REV_AT_EPOCH":12953,"BSTAR":4.8473776e-5,"MEAN_MOTION_DOT":4.85e-6,"MEAN_MOTION_DDOT":0},{"OBJECT_NAME":"STARLINK-5987","OBJECT_ID":"2023-064H","EPOCH":"2025-09-19T00:41:04.566048","MEAN_MOTION":14.98328925,"ECCENTRICITY":0.00033608,"INCLINATION":69.9988,"RA_OF_ASC_NODE":217.2397,"ARG_OF_PERICENTER":266.1798,"MEAN_ANOMALY":93.8977,"EPHEMERIS_TYPE":0,"CLASSIFICATION_TYPE":"U","NORAD_CAT_ID":56455,"ELEMENT_SET_NO":999,"REV_AT_EPOCH":12953,"BSTAR":3.6898658e-5,"MEAN_MOTION_DOT":3.47e-6,"MEAN_MOTION_DDOT":0},{"OBJECT_NAME":"STARLINK-5995","OBJECT_ID":"2023-064J","EPOCH":"2025-09-19T00:59:06.263808","MEAN_MOTION":14.98331764,"ECCENTRICITY":0.00031143,"INCLINATION":69.9996,"RA_OF_ASC_NODE":217.286,"ARG_OF_PERICENTER":271.8235,"MEAN_ANOMALY":88.2567,"EPHEMERIS_TYPE":0,"CLASSIFICATION_TYPE":"U","NORAD_CAT_ID":56456,"ELEMENT_SET_NO":999,"REV_AT_EPOCH":12953,"BSTAR":5.452342e-5,"MEAN_MOTION_DOT":5.58e-6,"MEAN_MOTION_DDOT":0},{"OBJECT_NAME":"STARLINK-5994","OBJECT_ID":"2023-064K","EPOCH":"2025-09-19T00:53:05.713152","MEAN_MOTION":14.98329441,"ECCENTRICITY":0.0003312,"INCLINATION":69.9993,"RA_OF_ASC_NODE":217.2693,"ARG_OF_PERICENTER":269.3569,"MEAN_ANOMALY":90.7211,"EPHEMERIS_TYPE":0,"CLASSIFICATION_TYPE":"U","NORAD_CAT_ID":56457,"ELEMENT_SET_NO":999,"REV_AT_EPOCH":12953,"BSTAR":4.847851e-5,"MEAN_MOTION_DOT":4.85e-6,"MEAN_MOTION_DDOT":0},{"OBJECT_NAME":"STARLINK-6050","OBJECT_ID":"2023-064L","EPOCH":"2025-09-18T05:52:12.040320","MEAN_MOTION":14.97847138,"ECCENTRICITY":0.00027313,"INCLINATION":69.9993,"RA_OF_ASC_NODE":219.3213,"ARG_OF_PERICENTER":313.0791,"MEAN_ANOMALY":47.0139,"EPHEMERIS_TYPE":0,"CLASSIFICATION_TYPE":"U","NORAD_CAT_ID":56458,"ELEMENT_SET_NO":999,"REV_AT_EPOCH":12941,"BSTAR":-0.0051492608,"MEAN_MOTION_DOT":-0.00060251,"MEAN_MOTION_DDOT":0},{"OBJECT_NAME":"STARLINK-6048","OBJECT_ID":"2023-064M","EPOCH":"2025-09-19T06:00:02.000160","MEAN_MOTION":14.98312527,"ECCENTRICITY":0.00029469,"INCLINATION":70.0008,"RA_OF_ASC_NODE":216.5823,"ARG_OF_PERICENTER":273.5884,"MEAN_ANOMALY":290.0627,"EPHEMERIS_TYPE":0,"CLASSIFICATION_TYPE":"U","NORAD_CAT_ID":56459,"ELEMENT_SET_NO":999,"REV_AT_EPOCH":577,"BSTAR":0.0030527949,"MEAN_MOTION_DOT":0.00036506,"MEAN_MOTION_DDOT":0},{"OBJECT_NAME":"STARLINK-6047","OBJECT_ID":"2023-064N","EPOCH":"2025-09-19T00:35:04.003296","MEAN_MOTION":14.98326968,"ECCENTRICITY":0.00031016,"INCLINATION":69.999,"RA_OF_ASC_NODE":217.2261,"ARG_OF_PERICENTER":270.1736,"MEAN_ANOMALY":89.9068,"EPHEMERIS_TYPE":0,"CLASSIFICATION_TYPE":"U","NORAD_CAT_ID":56460,"ELEMENT_SET_NO":999,"REV_AT_EPOCH":12953,"BSTAR":3.4365155e-5,"MEAN_MOTION_DOT":3.17e-6,"MEAN_MOTION_DDOT":0},{"OBJECT_NAME":"STARLINK-6037","OBJECT_ID":"2023-064P","EPOCH":"2025-09-19T06:35:34.079136","MEAN_MOTION":14.98322449,"ECCENTRICITY":0.00026343,"INCLINATION":70.0017,"RA_OF_ASC_NODE":216.499,"ARG_OF_PERICENTER":268.6132,"MEAN_ANOMALY":91.4725,"EPHEMERIS_TYPE":0,"CLASSIFICATION_TYPE":"U","NORAD_CAT_ID":56461,"ELEMENT_SET_NO":999,"REV_AT_EPOCH":12957,"BSTAR":-0.00021363494,"MEAN_MOTION_DOT":-2.64e-5,"MEAN_MOTION_DDOT":0},{"OBJECT_NAME":"STARLINK-6045","OBJECT_ID":"2023-064Q","EPOCH":"2025-09-19T03:52:53.872896","MEAN_MOTION":14.98328846,"ECCENTRICITY":0.00028993,"INCLINATION":70.0005,"RA_OF_ASC_NODE":176.7375,"ARG_OF_PERICENTER":265.3386,"MEAN_ANOMALY":94.7441,"EPHEMERIS_TYPE":0,"CLASSIFICATION_TYPE":"U","NORAD_CAT_ID":56462,"ELEMENT_SET_NO":999,"REV_AT_EPOCH":13054,"BSTAR":0.00012590509,"MEAN_MOTION_DOT":1.41e-5,"MEAN_MOTION_DDOT":0},{"OBJECT_NAME":"STARLINK-6051","OBJECT_ID":"2023-064R","EPOCH":"2025-09-19T01:11:07.595808","MEAN_MOTION":14.98331116,"ECCENTRICITY":0.00030782,"INCLINATION":69.9992,"RA_OF_ASC_NODE":217.3067,"ARG_OF_PERICENTER":269.3313,"MEAN_ANOMALY":90.7493,"EPHEMERIS_TYPE":0,"CLASSIFICATION_TYPE":"U","NORAD_CAT_ID":56463,"ELEMENT_SET_NO":999,"REV_AT_EPOCH":12953,"BSTAR":4.2023136e-5,"MEAN_MOTION_DOT":4.08e-6,"MEAN_MOTION_DDOT":0},{"OBJECT_NAME":"STARLINK-6043","OBJECT_ID":"2023-064S","EPOCH":"2025-09-19T06:53:35.373408","MEAN_MOTION":14.98340097,"ECCENTRICITY":0.00034078,"INCLINATION":69.9993,"RA_OF_ASC_NODE":216.538,"ARG_OF_PERICENTER":273.0168,"MEAN_ANOMALY":87.0601,"EPHEMERIS_TYPE":0,"CLASSIFICATION_TYPE":"U","NORAD_CAT_ID":56464,"ELEMENT_SET_NO":999,"REV_AT_EPOCH":12957,"BSTAR":3.7774868e-5,"MEAN_MOTION_DOT":3.58e-6,"MEAN_MOTION_DDOT":0},{"OBJECT_NAME":"STARLINK-6054","OBJECT_ID":"2023-064T","EPOCH":"2025-09-19T04:04:40.808928","MEAN_MOTION":14.98328283,"ECCENTRICITY":0.00027475,"INCLINATION":70.0005,"RA_OF_ASC_NODE":176.7619,"ARG_OF_PERICENTER":268.3572,"MEAN_ANOMALY":91.7272,"EPHEMERIS_TYPE":0,"CLASSIFICATION_TYPE":"U","NORAD_CAT_ID":56465,"ELEMENT_SET_NO":999,"REV_AT_EPOCH":13054,"BSTAR":7.4163308e-5,"MEAN_MOTION_DOT":7.92e-6,"MEAN_MOTION_DDOT":0},{"OBJECT_NAME":"STARLINK-6053","OBJECT_ID":"2023-064U","EPOCH":"2025-09-19T06:41:35.149056","MEAN_MOTION":14.98331201,"ECCENTRICITY":0.00040636,"INCLINATION":69.9988,"RA_OF_ASC_NODE":216.5086,"ARG_OF_PERICENTER":283.0752,"MEAN_ANOMALY":76.9953,"EPHEMERIS_TYPE":0,"CLASSIFICATION_TYPE":"U","NORAD_CAT_ID":56466,"ELEMENT_SET_NO":999,"REV_AT_EPOCH":12957,"BSTAR":7.4199118e-5,"MEAN_MOTION_DOT":7.92e-6,"MEAN_MOTION_DDOT":0},{"OBJECT_NAME":"STARLINK-6055","OBJECT_ID":"2023-064V","EPOCH":"2025-09-19T05:35:10.789728","MEAN_MOTION":14.9832211,"ECCENTRICITY":0.00030972,"INCLINATION":69.9993,"RA_OF_ASC_NODE":196.8829,"ARG_OF_PERICENTER":264.304,"MEAN_ANOMALY":95.7766,"EPHEMERIS_TYPE":0,"CLASSIFICATION_TYPE":"U","NORAD_CAT_ID":56467,"ELEMENT_SET_NO":999,"REV_AT_EPOCH":13005,"BSTAR":-0.00026263119,"MEAN_MOTION_DOT":-3.225e-5,"MEAN_MOTION_DDOT":0},{"OBJECT_NAME":"STARLINK-5998","OBJECT_ID":"2023-064W","EPOCH":"2025-09-19T06:29:32.902944","MEAN_MOTION":14.98330192,"ECCENTRICITY":0.0002758,"INCLINATION":69.9987,"RA_OF_ASC_NODE":216.4771,"ARG_OF_PERICENTER":268.9935,"MEAN_ANOMALY":91.0908,"EPHEMERIS_TYPE":0,"CLASSIFICATION_TYPE":"U","NORAD_CAT_ID":56468,"ELEMENT_SET_NO":999,"REV_AT_EPOCH":12957,"BSTAR":5.9190363e-5,"MEAN_MOTION_DOT":6.13e-6,"MEAN_MOTION_DDOT":0}]
